COSMOS 2251 DEB         
1 37329U 93036BKV 17345.22003649  .00004285  00000-0  42375-3 0  9994
2 37329  74.0141 304.0126 0021140  69.1500 291.1943 14.92066975440127
